STARLINK-37083          
1 68227U 26053W   26100.50002315 -.01927696  00000+0 -19176-1 0  9992
2 68227  97.2850 336.4262 0001592  95.5879 221.6088 15.68663970  5120
STARLINK-37050          
1 68228U 26053X   26100.50002315 -.01903068  00000+0 -19694-1 0  9995
2 68228  97.2850 336.4247 0001566  99.4427 215.6097 15.67661677  5109
STARLINK-37081          
1 68229U 26053Y   26099.89973440  .00265016  00000+0  17167-2 0  9996
2 68229  97.2855 335.7278 0001826 108.2609 251.8855 15.75276026  4989
STARLINK-37100          
1 68230U 26053Z   26100.50002315 -.01900075  00000+0 -20350-1 0  9994
2 68230  97.2849 336.4224 0001553  98.3043 211.2430 15.66814625  5120
STARLINK-37104          
1 68231U 26053AA  26100.50002315 -.01903800  00000+0 -20414-1 0  9995
2 68231  97.2849 336.4241 0001599  97.6114 215.8818 15.66790341  5129
STARLINK-37027          
1 68232U 26054A   26100.53465957  .00205090  00000+0  13065-2 0  9993
2 68232  53.1594 153.5848 0000872  46.7558 313.3535 15.75297465  3801
STARLINK-37132          
1 68233U 26054B   26100.42756649  .00187397  00000+0  93020-3 0  9992
2 68233  53.1573 153.6092 0000866  60.0337 300.0772 15.80926912  3794
STARLINK-37101          
1 68234U 26054C   26100.52591385  .00185982  00000+0  11883-2 0  9992
2 68234  53.1577 153.5258 0001623  66.6575 293.4616 15.75289586  3807
STARLINK-36963          
1 68235U 26054D   26100.53045310  .00203174  00000+0  12951-2 0  9997
2 68235  53.1589 153.5567 0001493  76.4421 283.6765 15.75290076  3800
STARLINK-37127          
1 68236U 26054E   26100.34919220  .00250368  00000+0  15795-2 0  9993
2 68236  53.1588 154.5627 0001000  66.2819 293.8306 15.75383878  3773
STARLINK-37095          
1 68237U 26054F   26100.53499220  .00233491  00000+0  14870-2 0  9999
2 68237  53.1595 153.5868 0002177 102.4003 257.7261 15.75217075  3800
STARLINK-37097          
1 68238U 26054G   26100.50002315 -.00067024  00000+0 -43637-3 0  9995
2 68238  53.1595 153.3359 0001184  70.3685 299.2324 15.75246588  5028
STARLINK-37096          
1 68239U 26054H   26100.44398560  .00234663  00000+0  14892-2 0  9992
2 68239  53.1587 153.7186 0002948  18.1482 341.9643 15.75293500  3793
STARLINK-37092          
1 68240U 26054J   26100.45305623  .00265564  00000+0  16688-2 0  9992
2 68240  53.1567 153.7783 0001331 176.9250 183.1778 15.75429893  3798
STARLINK-37094          
1 68241U 26054K   26100.54853821 -.00805310  00000+0 -49513-2 0  9995
2 68241  53.1575 152.9380 0002135  23.1124 336.9993 15.78647917  3810
STARLINK-36356          
1 68242U 26054L   26100.52104851  .00319761  00000+0  19910-2 0  9992
2 68242  53.1568 153.4926 0001499  19.2044 340.9032 15.75482526  3802
STARLINK-36345          
1 68243U 26054M   26099.95910976  .00178146  00000+0  11390-2 0  9994
2 68243  53.1587 156.3919 0001061  84.9298 275.1843 15.75299989  3711
