[{"OBJECT_NAME":"STARLINK-37083","OBJECT_ID":"2026-053W","EPOCH":"2026-04-10T12:00:02.000160","MEAN_MOTION":15.6866397,"ECCENTRICITY":0.0001592,"INCLINATION":97.285,"RA_OF_ASC_NODE":336.4262,"ARG_OF_PERICENTER":95.5879,"MEAN_ANOMALY":221.6088,"EPHEMERIS_TYPE":0,"CLASSIFICATION_TYPE":"U","NORAD_CAT_ID":68227,"ELEMENT_SET_NO":999,"REV_AT_EPOCH":512,"BSTAR":-0.019176,"MEAN_MOTION_DOT":-0.01927696,"MEAN_MOTION_DDOT":0},{"OBJECT_NAME":"STARLINK-37050","OBJECT_ID":"2026-053X","EPOCH":"2026-04-10T12:00:02.000160","MEAN_MOTION":15.67661677,"ECCENTRICITY":0.0001566,"INCLINATION":97.285,"RA_OF_ASC_NODE":336.4247,"ARG_OF_PERICENTER":99.4427,"MEAN_ANOMALY":215.6097,"EPHEMERIS_TYPE":0,"CLASSIFICATION_TYPE":"U","NORAD_CAT_ID":68228,"ELEMENT_SET_NO":999,"REV_AT_EPOCH":510,"BSTAR":-0.019694,"MEAN_MOTION_DOT":-0.01903068,"MEAN_MOTION_DDOT":0},{"OBJECT_NAME":"STARLINK-37081","OBJECT_ID":"2026-053Y","EPOCH":"2026-04-09T21:35:37.052160","MEAN_MOTION":15.75276026,"ECCENTRICITY":0.00018265,"INCLINATION":97.2855,"RA_OF_ASC_NODE":335.7278,"ARG_OF_PERICENTER":108.2609,"MEAN_ANOMALY":251.8855,"EPHEMERIS_TYPE":0,"CLASSIFICATION_TYPE":"U","NORAD_CAT_ID":68229,"ELEMENT_SET_NO":999,"REV_AT_EPOCH":498,"BSTAR":0.0017166765,"MEAN_MOTION_DOT":0.00265016,"MEAN_MOTION_DDOT":0},{"OBJECT_NAME":"STARLINK-37100","OBJECT_ID":"2026-053Z","EPOCH":"2026-04-10T12:00:02.000160","MEAN_MOTION":15.66814625,"ECCENTRICITY":0.0001553,"INCLINATION":97.2849,"RA_OF_ASC_NODE":336.4224,"ARG_OF_PERICENTER":98.3043,"MEAN_ANOMALY":211.243,"EPHEMERIS_TYPE":0,"CLASSIFICATION_TYPE":"U","NORAD_CAT_ID":68230,"ELEMENT_SET_NO":999,"REV_AT_EPOCH":512,"BSTAR":-0.02035,"MEAN_MOTION_DOT":-0.01900075,"MEAN_MOTION_DDOT":0},{"OBJECT_NAME":"STARLINK-37104","OBJECT_ID":"2026-053AA","EPOCH":"2026-04-10T12:00:02.000160","MEAN_MOTION":15.66790341,"ECCENTRICITY":0.0001599,"INCLINATION":97.2849,"RA_OF_ASC_NODE":336.4241,"ARG_OF_PERICENTER":97.6114,"MEAN_ANOMALY":215.8818,"EPHEMERIS_TYPE":0,"CLASSIFICATION_TYPE":"U","NORAD_CAT_ID":68231,"ELEMENT_SET_NO":999,"REV_AT_EPOCH":512,"BSTAR":-0.020414,"MEAN_MOTION_DOT":-0.019038,"MEAN_MOTION_DDOT":0},{"OBJECT_NAME":"STARLINK-37027","OBJECT_ID":"2026-054A","EPOCH":"2026-04-10T12:49:54.586848","MEAN_MOTION":15.75297465,"ECCENTRICITY":8.72e-5,"INCLINATION":53.1594,"RA_OF_ASC_NODE":153.5848,"ARG_OF_PERICENTER":46.7558,"MEAN_ANOMALY":313.3535,"EPHEMERIS_TYPE":0,"CLASSIFICATION_TYPE":"U","NORAD_CAT_ID":68232,"ELEMENT_SET_NO":999,"REV_AT_EPOCH":380,"BSTAR":0.0013065,"MEAN_MOTION_DOT":0.0020509,"MEAN_MOTION_DDOT":0},{"OBJECT_NAME":"STARLINK-37132","OBJECT_ID":"2026-054B","EPOCH":"2026-04-10T10:15:41.744736","MEAN_MOTION":15.80926912,"ECCENTRICITY":8.66e-5,"INCLINATION":53.1573,"RA_OF_ASC_NODE":153.6092,"ARG_OF_PERICENTER":60.0337,"MEAN_ANOMALY":300.0772,"EPHEMERIS_TYPE":0,"CLASSIFICATION_TYPE":"U","NORAD_CAT_ID":68233,"ELEMENT_SET_NO":999,"REV_AT_EPOCH":379,"BSTAR":0.0009302,"MEAN_MOTION_DOT":0.00187397,"MEAN_MOTION_DDOT":0},{"OBJECT_NAME":"STARLINK-37101","OBJECT_ID":"2026-054C","EPOCH":"2026-04-10T12:37:18.956640","MEAN_MOTION":15.75289586,"ECCENTRICITY":0.0001623,"INCLINATION":53.1577,"RA_OF_ASC_NODE":153.5258,"ARG_OF_PERICENTER":66.6575,"MEAN_ANOMALY":293.4616,"EPHEMERIS_TYPE":0,"CLASSIFICATION_TYPE":"U","NORAD_CAT_ID":68234,"ELEMENT_SET_NO":999,"REV_AT_EPOCH":380,"BSTAR":0.0011883,"MEAN_MOTION_DOT":0.00185982,"MEAN_MOTION_DDOT":0},{"OBJECT_NAME":"STARLINK-36963","OBJECT_ID":"2026-054D","EPOCH":"2026-04-10T12:43:51.147840","MEAN_MOTION":15.75290076,"ECCENTRICITY":0.0001493,"INCLINATION":53.1589,"RA_OF_ASC_NODE":153.5567,"ARG_OF_PERICENTER":76.4421,"MEAN_ANOMALY":283.6765,"EPHEMERIS_TYPE":0,"CLASSIFICATION_TYPE":"U","NORAD_CAT_ID":68235,"ELEMENT_SET_NO":999,"REV_AT_EPOCH":380,"BSTAR":0.0012951,"MEAN_MOTION_DOT":0.00203174,"MEAN_MOTION_DDOT":0},{"OBJECT_NAME":"STARLINK-37127","OBJECT_ID":"2026-054E","EPOCH":"2026-04-10T08:22:50.206080","MEAN_MOTION":15.75383878,"ECCENTRICITY":0.0001,"INCLINATION":53.1588,"RA_OF_ASC_NODE":154.5627,"ARG_OF_PERICENTER":66.2819,"MEAN_ANOMALY":293.8306,"EPHEMERIS_TYPE":0,"CLASSIFICATION_TYPE":"U","NORAD_CAT_ID":68236,"ELEMENT_SET_NO":999,"REV_AT_EPOCH":377,"BSTAR":0.0015795,"MEAN_MOTION_DOT":0.00250368,"MEAN_MOTION_DDOT":0},{"OBJECT_NAME":"STARLINK-37095","OBJECT_ID":"2026-054F","EPOCH":"2026-04-10T12:50:23.326080","MEAN_MOTION":15.75217075,"ECCENTRICITY":0.0002177,"INCLINATION":53.1595,"RA_OF_ASC_NODE":153.5868,"ARG_OF_PERICENTER":102.4003,"MEAN_ANOMALY":257.7261,"EPHEMERIS_TYPE":0,"CLASSIFICATION_TYPE":"U","NORAD_CAT_ID":68237,"ELEMENT_SET_NO":999,"REV_AT_EPOCH":380,"BSTAR":0.001487,"MEAN_MOTION_DOT":0.00233491,"MEAN_MOTION_DDOT":0},{"OBJECT_NAME":"STARLINK-37097","OBJECT_ID":"2026-054G","EPOCH":"2026-04-10T12:00:02.000160","MEAN_MOTION":15.75246588,"ECCENTRICITY":0.0001184,"INCLINATION":53.1595,"RA_OF_ASC_NODE":153.3359,"ARG_OF_PERICENTER":70.3685,"MEAN_ANOMALY":299.2324,"EPHEMERIS_TYPE":0,"CLASSIFICATION_TYPE":"U","NORAD_CAT_ID":68238,"ELEMENT_SET_NO":999,"REV_AT_EPOCH":502,"BSTAR":-0.00043637,"MEAN_MOTION_DOT":-0.00067024,"MEAN_MOTION_DDOT":0},{"OBJECT_NAME":"STARLINK-37096","OBJECT_ID":"2026-054H","EPOCH":"2026-04-10T10:39:20.355840","MEAN_MOTION":15.752935,"ECCENTRICITY":0.0002948,"INCLINATION":53.1587,"RA_OF_ASC_NODE":153.7186,"ARG_OF_PERICENTER":18.1482,"MEAN_ANOMALY":341.9643,"EPHEMERIS_TYPE":0,"CLASSIFICATION_TYPE":"U","NORAD_CAT_ID":68239,"ELEMENT_SET_NO":999,"REV_AT_EPOCH":379,"BSTAR":0.0014892,"MEAN_MOTION_DOT":0.00234663,"MEAN_MOTION_DDOT":0},{"OBJECT_NAME":"STARLINK-37092","OBJECT_ID":"2026-054J","EPOCH":"2026-04-10T10:52:24.058272","MEAN_MOTION":15.75429893,"ECCENTRICITY":0.0001331,"INCLINATION":53.1567,"RA_OF_ASC_NODE":153.7783,"ARG_OF_PERICENTER":176.925,"MEAN_ANOMALY":183.1778,"EPHEMERIS_TYPE":0,"CLASSIFICATION_TYPE":"U","NORAD_CAT_ID":68240,"ELEMENT_SET_NO":999,"REV_AT_EPOCH":379,"BSTAR":0.0016688,"MEAN_MOTION_DOT":0.00265564,"MEAN_MOTION_DDOT":0},{"OBJECT_NAME":"STARLINK-37094","OBJECT_ID":"2026-054K","EPOCH":"2026-04-10T13:09:53.701344","MEAN_MOTION":15.78647917,"ECCENTRICITY":0.0002135,"INCLINATION":53.1575,"RA_OF_ASC_NODE":152.938,"ARG_OF_PERICENTER":23.1124,"MEAN_ANOMALY":336.9993,"EPHEMERIS_TYPE":0,"CLASSIFICATION_TYPE":"U","NORAD_CAT_ID":68241,"ELEMENT_SET_NO":999,"REV_AT_EPOCH":381,"BSTAR":-0.0049513,"MEAN_MOTION_DOT":-0.0080531,"MEAN_MOTION_DDOT":0},{"OBJECT_NAME":"STARLINK-36356","OBJECT_ID":"2026-054L","EPOCH":"2026-04-10T12:30:18.591264","MEAN_MOTION":15.75482526,"ECCENTRICITY":0.0001499,"INCLINATION":53.1568,"RA_OF_ASC_NODE":153.4926,"ARG_OF_PERICENTER":19.2044,"MEAN_ANOMALY":340.9032,"EPHEMERIS_TYPE":0,"CLASSIFICATION_TYPE":"U","NORAD_CAT_ID":68242,"ELEMENT_SET_NO":999,"REV_AT_EPOCH":380,"BSTAR":0.001991,"MEAN_MOTION_DOT":0.00319761,"MEAN_MOTION_DDOT":0},{"OBJECT_NAME":"STARLINK-36345","OBJECT_ID":"2026-054M","EPOCH":"2026-04-09T23:01:07.083264","MEAN_MOTION":15.75299989,"ECCENTRICITY":0.00010616,"INCLINATION":53.1587,"RA_OF_ASC_NODE":156.3919,"ARG_OF_PERICENTER":84.9298,"MEAN_ANOMALY":275.1843,"EPHEMERIS_TYPE":0,"CLASSIFICATION_TYPE":"U","NORAD_CAT_ID":68243,"ELEMENT_SET_NO":999,"REV_AT_EPOCH":371,"BSTAR":0.0011389503,"MEAN_MOTION_DOT":0.00178146,"MEAN_MOTION_DDOT":0}]
